RCM-1                   
1 44322U 19033A   26199.31826657  .00000507  00000+0  54708-4 0  9995
2 44322  97.7604 206.3256 0001510  92.7495 323.5510 14.92589708386725
RCM-3                   
1 44323U 19033B   26199.26337488 -.00000263  00000+0 -20118-4 0  9998
2 44323  97.7604 206.3660 0001514  93.0877 267.0515 14.92588518386733
RCM-2                   
1 44324U 19033C   26199.28558361  .00000374  00000+0  41775-4 0  9999
2 44324  97.7606 206.3381 0001537  91.6795 268.4600 14.92589374386724
