{"fetched_at":"2026-07-18T17:30:14.618Z","source":"https://celestrak.org/NORAD/elements/gp.php?NAME=RCM&FORMAT=JSON","constellation":"rcm","records":[{"OBJECT_NAME":"RCM-1","OBJECT_ID":"2019-033A","EPOCH":"2026-07-18T07:38:18.231648","CLASSIFICATION_TYPE":"U","MEAN_MOTION":14.92589708,"ECCENTRICITY":0.00015103,"INCLINATION":97.7604,"RA_OF_ASC_NODE":206.3256,"ARG_OF_PERICENTER":92.7495,"MEAN_ANOMALY":323.551,"EPHEMERIS_TYPE":0,"NORAD_CAT_ID":44322,"ELEMENT_SET_NO":999,"REV_AT_EPOCH":38672,"BSTAR":0.000054707721,"MEAN_MOTION_DOT":0.00000507,"MEAN_MOTION_DDOT":0},{"OBJECT_NAME":"RCM-3","OBJECT_ID":"2019-033B","EPOCH":"2026-07-18T06:19:15.589632","CLASSIFICATION_TYPE":"U","MEAN_MOTION":14.92588518,"ECCENTRICITY":0.00015141,"INCLINATION":97.7604,"RA_OF_ASC_NODE":206.366,"ARG_OF_PERICENTER":93.0877,"MEAN_ANOMALY":267.0515,"EPHEMERIS_TYPE":0,"NORAD_CAT_ID":44323,"ELEMENT_SET_NO":999,"REV_AT_EPOCH":38673,"BSTAR":-0.000020117871,"MEAN_MOTION_DOT":-0.00000263,"MEAN_MOTION_DDOT":0},{"OBJECT_NAME":"RCM-2","OBJECT_ID":"2019-033C","EPOCH":"2026-07-18T06:51:14.423904","CLASSIFICATION_TYPE":"U","MEAN_MOTION":14.92589374,"ECCENTRICITY":0.00015371,"INCLINATION":97.7606,"RA_OF_ASC_NODE":206.3381,"ARG_OF_PERICENTER":91.6795,"MEAN_ANOMALY":268.46,"EPHEMERIS_TYPE":0,"NORAD_CAT_ID":44324,"ELEMENT_SET_NO":999,"REV_AT_EPOCH":38672,"BSTAR":0.000041775212,"MEAN_MOTION_DOT":0.00000374,"MEAN_MOTION_DDOT":0}]}
